SL-14 R/B               
1 21423U 91042B   25355.22323293  .00000361  00000+0  42744-4 0  9998
2 21423  82.4935 293.7681 0018130 135.0538 225.2148 14.81745992841455
ERS-1                   
1 21574U 91050A   25354.93965536  .00000212  00000+0  82493-4 0  9993
2 21574  98.7900   6.1994 0032995  76.4145 284.0714 14.39370427804400
ARIANE 40 R/B           
1 21610U 91050F   25355.10840509  .00000240  00000+0  84566-4 0  9990
2 21610  98.2154  45.2367 0002276 331.3181  28.7884 14.42819569807668
INTERCOSMOS 25          
1 21819U 91086A   25355.30425425  .00001941  00000+0  38658-3 0  9997
2 21819  82.6071 357.3949 1486365 285.9312  58.3327 12.11759450487192
SL-8 R/B                
1 21876U 92008B   25355.17748208  .00000099  00000+0  86414-4 0  9994
2 21876  82.9268 326.1699 0034651 356.4295  16.1435 13.75960773698629
SL-8 R/B                
1 21938U 92020B   25355.07055260  .00000128  00000+0  11676-3 0  9995
2 21938  82.9297 212.1313 0029437 155.0275 315.1086 13.75529110690323
USA 81                  
1 21949U 92023A   25354.57887513  .00000143  00000+0  45566-4 0  9991
2 21949  85.0079 177.0549 0001152  76.9071 283.2250 14.32329508 83468
COSMOS 2219             
1 22219U 92076A   25354.85964826  .00000211  00000+0  13552-3 0  9999
2 22219  71.0573 182.8582 0019234 315.8435  44.1151 14.14064805707231
SL-16 R/B               
1 22220U 92076B   25355.11914856  .00000229  00000+0  13794-3 0  9996
2 22220  71.0007 353.8804 0014356 222.7641 200.8754 14.16843784710706
COSMOS 2221             
1 22236U 92080A   25355.04614777  .00001394  00000+0  12240-3 0  9998
2 22236  82.5038 354.3744 0016284  96.0995 264.2083 14.95788830769035
SL-16 R/B               
1 22285U 92093B   25355.22460390  .00000083  00000+0  66948-4 0  9995
2 22285  71.0204 168.9842 0002384  42.9570 317.1739 14.15434751702057
COSMOS 2228             
1 22286U 92094A   25355.24753156  .00001843  00000+0  15843-3 0  9996
2 22286  82.5183 312.3936 0017147 200.8996 159.1528 14.96765541764321
